{
  "type": "FeatureCollection",
  "features": [
    {
      "type": "Feature",
      "properties": {
        "norad_id": 34564,
        "name": "COSMOS 2251 DEB",
        "group": "cosmos-2251-debris",
        "lat": NaN,
        "lon": NaN,
        "alt_km": NaN,
        "timestamp": "2025-12-01T02:47:04.289608+00:00",
        "meta": {
          "OBJECT_NAME": "COSMOS 2251 DEB",
          "OBJECT_ID": "1993-036VA",
          "EPOCH": "2025-11-30T14:10:01.168320",
          "MEAN_MOTION": 14.40654727,
          "ECCENTRICITY": 0.0018513,
          "INCLINATION": 74.0328,
          "RA_OF_ASC_NODE": 260.4882,
          "ARG_OF_PERICENTER": 6.7769,
          "MEAN_ANOMALY": 171.4529,
          "EPHEMERIS_TYPE": 0,
          "CLASSIFICATION_TYPE": "U",
          "NORAD_CAT_ID": 34564,
          "ELEMENT_SET_NO": 999,
          "REV_AT_EPOCH": 87831,
          "BSTAR": 0.00028997,
          "MEAN_MOTION_DOT": 9.01e-06,
          "MEAN_MOTION_DDOT": 0
        }
      },
      "geometry": {
        "type": "Point",
        "coordinates": [
          NaN,
          NaN
        ]
      }
    },
    {
      "type": "Feature",
      "properties": {
        "norad_id": 34567,
        "name": "COSMOS 2251 DEB",
        "group": "cosmos-2251-debris",
        "lat": NaN,
        "lon": NaN,
        "alt_km": NaN,
        "timestamp": "2025-12-01T02:47:04.289625+00:00",
        "meta": {
          "OBJECT_NAME": "COSMOS 2251 DEB",
          "OBJECT_ID": "1993-036VD",
          "EPOCH": "2025-11-30T15:01:48.845856",
          "MEAN_MOTION": 14.23997311,
          "ECCENTRICITY": 0.0074711,
          "INCLINATION": 74.0401,
          "RA_OF_ASC_NODE": 178.5816,
          "ARG_OF_PERICENTER": 255.4103,
          "MEAN_ANOMALY": 161.4534,
          "EPHEMERIS_TYPE": 0,
          "CLASSIFICATION_TYPE": "U",
          "NORAD_CAT_ID": 34567,
          "ELEMENT_SET_NO": 999,
          "REV_AT_EPOCH": 86952,
          "BSTAR": 0.00019676,
          "MEAN_MOTION_DOT": 4.39e-06,
          "MEAN_MOTION_DDOT": 0
        }
      },
      "geometry": {
        "type": "Point",
        "coordinates": [
          NaN,
          NaN
        ]
      }
    },
    {
      "type": "Feature",
      "properties": {
        "norad_id": 34569,
        "name": "COSMOS 2251 DEB",
        "group": "cosmos-2251-debris",
        "lat": NaN,
        "lon": NaN,
        "alt_km": NaN,
        "timestamp": "2025-12-01T02:47:04.289641+00:00",
        "meta": {
          "OBJECT_NAME": "COSMOS 2251 DEB",
          "OBJECT_ID": "1993-036VF",
          "EPOCH": "2025-11-30T19:33:55.885824",
          "MEAN_MOTION": 14.24696689,
          "ECCENTRICITY": 0.0156781,
          "INCLINATION": 73.9906,
          "RA_OF_ASC_NODE": 219.696,
          "ARG_OF_PERICENTER": 50.8568,
          "MEAN_ANOMALY": 29.6566,
          "EPHEMERIS_TYPE": 0,
          "CLASSIFICATION_TYPE": "U",
          "NORAD_CAT_ID": 34569,
          "ELEMENT_SET_NO": 999,
          "REV_AT_EPOCH": 86798,
          "BSTAR": 0.000586,
          "MEAN_MOTION_DOT": 1.524e-05,
          "MEAN_MOTION_DDOT": 0
        }
      },
      "geometry": {
        "type": "Point",
        "coordinates": [
          NaN,
          NaN
        ]
      }
    },
    {
      "type": "Feature",
      "properties": {
        "norad_id": 34570,
        "name": "COSMOS 2251 DEB",
        "group": "cosmos-2251-debris",
        "lat": NaN,
        "lon": NaN,
        "alt_km": NaN,
        "timestamp": "2025-12-01T02:47:04.289658+00:00",
        "meta": {
          "OBJECT_NAME": "COSMOS 2251 DEB",
          "OBJECT_ID": "1993-036VG",
          "EPOCH": "2025-11-30T11:49:56.021664",
          "MEAN_MOTION": 13.99789433,
          "ECCENTRICITY": 0.01903619,
          "INCLINATION": 73.9582,
          "RA_OF_ASC_NODE": 239.579,
          "ARG_OF_PERICENTER": 124.806,
          "MEAN_ANOMALY": 51.9618,
          "EPHEMERIS_TYPE": 0,
          "CLASSIFICATION_TYPE": "U",
          "NORAD_CAT_ID": 34570,
          "ELEMENT_SET_NO": 999,
          "REV_AT_EPOCH": 85429,
          "BSTAR": 0.00045150495,
          "MEAN_MOTION_DOT": 7.51e-06,
          "MEAN_MOTION_DDOT": 0
        }
      },
      "geometry": {
        "type": "Point",
        "coordinates": [
          NaN,
          NaN
        ]
      }
    },
    {
      "type": "Feature",
      "properties": {
        "norad_id": 34571,
        "name": "COSMOS 2251 DEB",
        "group": "cosmos-2251-debris",
        "lat": NaN,
        "lon": NaN,
        "alt_km": NaN,
        "timestamp": "2025-12-01T02:47:04.289674+00:00",
        "meta": {
          "OBJECT_NAME": "COSMOS 2251 DEB",
          "OBJECT_ID": "1993-036VH",
          "EPOCH": "2025-11-30T01:43:20.045856",
          "MEAN_MOTION": 14.48520633,
          "ECCENTRICITY": 0.00677166,
          "INCLINATION": 74.0399,
          "RA_OF_ASC_NODE": 206.1644,
          "ARG_OF_PERICENTER": 244.2036,
          "MEAN_ANOMALY": 115.2128,
          "EPHEMERIS_TYPE": 0,
          "CLASSIFICATION_TYPE": "U",
          "NORAD_CAT_ID": 34571,
          "ELEMENT_SET_NO": 999,
          "REV_AT_EPOCH": 87110,
          "BSTAR": 0.0021566279,
          "MEAN_MOTION_DOT": 8.316e-05,
          "MEAN_MOTION_DDOT": 0
        }
      },
      "geometry": {
        "type": "Point",
        "coordinates": [
          NaN,
          NaN
        ]
      }
    },
    {
      "type": "Feature",
      "properties": {
        "norad_id": 34572,
        "name": "COSMOS 2251 DEB",
        "group": "cosmos-2251-debris",
        "lat": NaN,
        "lon": NaN,
        "alt_km": NaN,
        "timestamp": "2025-12-01T02:47:04.289690+00:00",
        "meta": {
          "OBJECT_NAME": "COSMOS 2251 DEB",
          "OBJECT_ID": "1993-036VJ",
          "EPOCH": "2025-11-30T11:01:09.428160",
          "MEAN_MOTION": 14.49591876,
          "ECCENTRICITY": 0.00642565,
          "INCLINATION": 74.0089,
          "RA_OF_ASC_NODE": 138.5974,
          "ARG_OF_PERICENTER": 214.307,
          "MEAN_ANOMALY": 176.5395,
          "EPHEMERIS_TYPE": 0,
          "CLASSIFICATION_TYPE": "U",
          "NORAD_CAT_ID": 34572,
          "ELEMENT_SET_NO": 999,
          "REV_AT_EPOCH": 87200,
          "BSTAR": 0.0030078397,
          "MEAN_MOTION_DOT": 0.0001185,
          "MEAN_MOTION_DDOT": 0
        }
      },
      "geometry": {
        "type": "Point",
        "coordinates": [
          NaN,
          NaN
        ]
      }
    },
    {
      "type": "Feature",
      "properties": {
        "norad_id": 34574,
        "name": "COSMOS 2251 DEB",
        "group": "cosmos-2251-debris",
        "lat": NaN,
        "lon": NaN,
        "alt_km": NaN,
        "timestamp": "2025-12-01T02:47:04.289707+00:00",
        "meta": {
          "OBJECT_NAME": "COSMOS 2251 DEB",
          "OBJECT_ID": "1993-036VL",
          "EPOCH": "2025-11-30T17:44:30.629760",
          "MEAN_MOTION": 14.70379622,
          "ECCENTRICITY": 0.0067136,
          "INCLINATION": 74.0691,
          "RA_OF_ASC_NODE": 66.373,
          "ARG_OF_PERICENTER": 91.4819,
          "MEAN_ANOMALY": 34.8297,
          "EPHEMERIS_TYPE": 0,
          "CLASSIFICATION_TYPE": "U",
          "NORAD_CAT_ID": 34574,
          "ELEMENT_SET_NO": 999,
          "REV_AT_EPOCH": 88602,
          "BSTAR": 0.001082,
          "MEAN_MOTION_DOT": 6.752e-05,
          "MEAN_MOTION_DDOT": 0
        }
      },
      "geometry": {
        "type": "Point",
        "coordinates": [
          NaN,
          NaN
        ]
      }
    },
    {
      "type": "Feature",
      "properties": {
        "norad_id": 34576,
        "name": "COSMOS 2251 DEB",
        "group": "cosmos-2251-debris",
        "lat": NaN,
        "lon": NaN,
        "alt_km": NaN,
        "timestamp": "2025-12-01T02:47:04.289723+00:00",
        "meta": {
          "OBJECT_NAME": "COSMOS 2251 DEB",
          "OBJECT_ID": "1993-036VN",
          "EPOCH": "2025-11-30T16:33:02.977056",
          "MEAN_MOTION": 14.55287151,
          "ECCENTRICITY": 0.0007808,
          "INCLINATION": 74.033,
          "RA_OF_ASC_NODE": 161.0222,
          "ARG_OF_PERICENTER": 294.0576,
          "MEAN_ANOMALY": 195.4604,
          "EPHEMERIS_TYPE": 0,
          "CLASSIFICATION_TYPE": "U",
          "NORAD_CAT_ID": 34576,
          "ELEMENT_SET_NO": 999,
          "REV_AT_EPOCH": 88291,
          "BSTAR": 0.0007571,
          "MEAN_MOTION_DOT": 3.255e-05,
          "MEAN_MOTION_DDOT": 0
        }
      },
      "geometry": {
        "type": "Point",
        "coordinates": [
          NaN,
          NaN
        ]
      }
    },
    {
      "type": "Feature",
      "properties": {
        "norad_id": 34577,
        "name": "COSMOS 2251 DEB",
        "group": "cosmos-2251-debris",
        "lat": NaN,
        "lon": NaN,
        "alt_km": NaN,
        "timestamp": "2025-12-01T02:47:04.289740+00:00",
        "meta": {
          "OBJECT_NAME": "COSMOS 2251 DEB",
          "OBJECT_ID": "1993-036VP",
          "EPOCH": "2025-11-30T15:27:51.058080",
          "MEAN_MOTION": 15.83471243,
          "ECCENTRICITY": 0.0008739,
          "INCLINATION": 73.9886,
          "RA_OF_ASC_NODE": 190.0882,
          "ARG_OF_PERICENTER": 141.4271,
          "MEAN_ANOMALY": 218.7585,
          "EPHEMERIS_TYPE": 0,
          "CLASSIFICATION_TYPE": "U",
          "NORAD_CAT_ID": 34577,
          "ELEMENT_SET_NO": 999,
          "REV_AT_EPOCH": 89336,
          "BSTAR": 0.0066548,
          "MEAN_MOTION_DOT": 0.01662874,
          "MEAN_MOTION_DDOT": 0
        }
      },
      "geometry": {
        "type": "Point",
        "coordinates": [
          NaN,
          NaN
        ]
      }
    }
  ]
}